[{"OBJECT_NAME":"CENTISPACE-1 S7","OBJECT_ID":"2025-007B","EPOCH":"2026-03-09T21:41:40.317504","MEAN_MOTION":13.83163062,"ECCENTRICITY":0.00097398,"INCLINATION":54.9754,"RA_OF_ASC_NODE":279.2765,"ARG_OF_PERICENTER":301.0996,"MEAN_ANOMALY":58.9005,"EPHEMERIS_TYPE":0,"CLASSIFICATION_TYPE":"U","NORAD_CAT_ID":62576,"ELEMENT_SET_NO":999,"REV_AT_EPOCH":6100,"BSTAR":0.00010048958,"MEAN_MOTION_DOT":-3.1e-7,"MEAN_MOTION_DDOT":0},{"OBJECT_NAME":"CENTISPACE-1 S12","OBJECT_ID":"2025-007G","EPOCH":"2026-03-09T21:41:43.238688","MEAN_MOTION":13.83332749,"ECCENTRICITY":0.000922,"INCLINATION":54.9763,"RA_OF_ASC_NODE":278.6057,"ARG_OF_PERICENTER":288.5805,"MEAN_ANOMALY":71.4151,"EPHEMERIS_TYPE":0,"CLASSIFICATION_TYPE":"U","NORAD_CAT_ID":62581,"ELEMENT_SET_NO":999,"REV_AT_EPOCH":6102,"BSTAR":0.0001043832,"MEAN_MOTION_DOT":-2.6e-7,"MEAN_MOTION_DDOT":0}]
